GLOBALSTAR M057         
1 25943U 99058A   25014.44851069 -.00000045  00000+0  43134-3 0  9990
2 25943  51.9994  64.5087 0002663  73.3590 286.7552 12.24807227148098
GLOBALSTAR M059         
1 25944U 99058B   25014.43425983 -.00000092  00000+0 -75699-4 0  9997
2 25944  52.0010 263.1247 0001189  54.8662 120.1867 11.99972338555584
GLOBALSTAR M056         
1 25945U 99058C   25014.21179166  .00000023  00000+0  12844-2 0  9996
2 25945  51.9956 269.6372 0000024 323.1453 187.1619 12.04776752144063
GLOBALSTAR M031         
1 25946U 99058D   25014.62594221 -.00000176  00000+0 -86417-3 0  9994
2 25946  51.9940 170.0294 0001238 172.7829 268.6710 12.16027628145868
GLOBALSTAR M039         
1 25961U 99062A   25014.39638896 -.00000071  00000+0  18012-3 0  9996
2 25961  51.9864  17.1298 0002682  13.0247 347.0689 12.62315330160797
GLOBALSTAR M034         
1 25962U 99062B   25014.49117434 -.00000070  00000+0  16826-3 0  9998
2 25962  51.9886  50.9076 0014388 111.8812  37.8191 11.79439168120243
GLOBALSTAR M029         
1 25963U 99062C   25014.57802868 -.00000100  00000+0 -16713-3 0  9990
2 25963  51.9788 150.9011 0003190 157.1605 284.4459 11.99890438150688
GLOBALSTAR M061         
1 25964U 99062D   25014.81002326 -.00000063  00000+0  28245-3 0  9999
2 25964  51.9762 232.0800 0006985  43.2379  38.6923 11.76770413103416
